GLOBALSTAR M075         
1 37192U 10054E   25214.03703008 -.00000098  00000+0  33167-4 0  9998
2 37192  51.9957  41.9341 0000817  80.6448  97.3965 12.62266423682164
GLOBALSTAR M073         
1 37193U 10054F   25214.49064050 -.00000109  00000+0 -29750-4 0  9993
2 37193  52.0082 314.4088 0000752 102.5236 338.3628 12.62261404683731
GLOBALSTAR M083         
1 37739U 11033A   25214.51877476 -.00000090  00000+0  74995-4 0  9993
2 37739  51.9846 262.9943 0000293 104.6493  41.9671 12.62275088653069
GLOBALSTAR M088         
1 37740U 11033B   25213.91341796 -.00000087  00000+0  95163-4 0  9995
2 37740  52.0199 170.4861 0000218  20.5000  15.1620 12.62267046648171
GLOBALSTAR M091         
1 37741U 11033C   25214.27268208 -.00000096  00000+0  42457-4 0  9990
2 37741  51.9993 132.8286 0000593  20.5167 149.3700 12.62269569649267
GLOBALSTAR M085         
1 37742U 11033D   25213.67544331 -.00000103  00000+0  38040-5 0  9991
2 37742  52.0127  85.6599 0000761  44.1019 350.9518 12.62263954649445
GLOBALSTAR M081         
1 37743U 11033E   25214.12622715 -.00000102  00000+0  11634-4 0  9994
2 37743  51.9959  87.0896 0000908  55.7299 107.1752 12.62267293650022
GLOBALSTAR M089         
1 37744U 11033F   25214.00852615 -.00000101  00000+0  17295-4 0  9994
2 37744  51.9940  41.6651 0001009  94.2272  74.6602 12.62265588650724
